{
  "type": "FeatureCollection",
  "features": [
    {
      "type": "Feature",
      "properties": {
        "id": 1,
        "name": "Sample Polygon 1"
      },
      "geometry": {
        "type": "Polygon",
        "coordinates": [[[0, 0], [1, 0], [1, 1], [0, 1], [0, 0]]]
      }
    },
    {
      "type": "Feature",
      "properties": {
        "id": 2,
        "name": "Sample Polygon 2"
      },
      "geometry": {
        "type": "Polygon",
        "coordinates": [[[1, 1], [2, 1], [2, 2], [1, 2], [1, 1]]]
      }
    }
  ]
}